[{"OBJECT_NAME":"STARLINK-3988","OBJECT_ID":"2022-052AD","EPOCH":"2026-03-09T22:12:32.080320","MEAN_MOTION":15.0883623,"ECCENTRICITY":0.00013961,"INCLINATION":53.2177,"RA_OF_ASC_NODE":268.0666,"ARG_OF_PERICENTER":96.7561,"MEAN_ANOMALY":263.359,"EPHEMERIS_TYPE":0,"CLASSIFICATION_TYPE":"U","NORAD_CAT_ID":52625,"ELEMENT_SET_NO":999,"REV_AT_EPOCH":21102,"BSTAR":-5.548616e-6,"MEAN_MOTION_DOT":-3.76e-6,"MEAN_MOTION_DDOT":0},{"OBJECT_NAME":"STARLINK-6085","OBJECT_ID":"2023-090Q","EPOCH":"2026-03-09T12:53:56.600160","MEAN_MOTION":15.13089153,"ECCENTRICITY":0.00193829,"INCLINATION":42.9983,"RA_OF_ASC_NODE":264.1938,"ARG_OF_PERICENTER":205.4773,"MEAN_ANOMALY":154.5119,"EPHEMERIS_TYPE":0,"CLASSIFICATION_TYPE":"U","NORAD_CAT_ID":57115,"ELEMENT_SET_NO":999,"REV_AT_EPOCH":15052,"BSTAR":0.0015301514,"MEAN_MOTION_DOT":0.00027564,"MEAN_MOTION_DDOT":0}]
